STARLINK-33807          
1 63518U 25071AB  26082.24163180  .00016754  00000+0  57667-3 0  9997
2 63518  53.1609  79.1462 0001240  95.9614 264.1528 15.30190249 54819
STARLINK-33787          
1 63519U 25071AC  26082.24690613  .00015432  00000+0  53216-3 0  9992
2 63519  53.1605  79.1793 0001422  85.6666 274.4498 15.30193438 54440
STARLINK-11669 [DTC]    
1 63548U 25075A   26081.40753347  .00238604  00000+0  18128-2 0  9999
2 63548  42.9994  76.7105 0001281 278.3290  81.7433 15.70804405 55251
STARLINK-11665 [DTC]    
1 63549U 25075B   26082.26064939  .00338610  00000+0  25222-2 0  9998
2 63549  42.9996  71.9414 0000512 254.0557 106.0254 15.70972104 55385
STARLINK-11667 [DTC]    
1 63550U 25075C   26081.26456038  .00197354  00000+0  15062-2 0  9993
2 63550  43.0007  78.2447 0001000 214.2799 145.8005 15.70825881 55224
STARLINK-11695 [DTC]    
1 63551U 25075D   26081.28127094  .00177178  00000+0  13571-2 0  9998
2 63551  42.9994  77.4828 0001676 239.0887 120.9816 15.70803039 55230
STARLINK-11685 [DTC]    
1 63552U 25075E   26082.24472266  .00237303  00000+0  17882-2 0  9996
2 63552  43.0017  71.8114 0002749 254.2907 105.7658 15.71002831 55382
STARLINK-11697 [DTC]    
1 63553U 25075F   26081.99570846  .00178442  00000+0  13588-2 0  9998
2 63553  42.9998  73.3858 0001714 297.3951  62.6742 15.70940147 55340
STARLINK-11680 [DTC]    
1 63554U 25075G   26081.70435563  .00260792  00000+0  19716-2 0  9993
2 63554  43.0000  75.5160 0000534 250.6300 109.4510 15.70854345 55297
STARLINK-11687 [DTC]    
1 63555U 25075H   26082.25001157  .00686355  21818-3  13048-2 0  9996
2 63555  42.9882  67.3686 0010595 152.9461 187.6587 15.99746558  5997
STARLINK-11626 [DTC]    
1 63556U 25075J   26081.27518257  .00090945  00000+0  70601-3 0  9991
2 63556  43.0024  78.3268 0001845 279.8910  80.1749 15.70788816 55222
STARLINK-11668 [DTC]    
1 63557U 25075K   26081.46061666  .00211838  00000+0  16100-2 0  9999
2 63557  43.0030  77.1331 0002452 270.9057  89.1529 15.70879325 55251
STARLINK-11657 [DTC]    
1 63558U 25075L   26081.69904661  .00274535  00000+0  20724-2 0  9996
2 63558  43.0004  75.4720 0000380 281.8587  78.2238 15.70846597 55298
STARLINK-11606 [DTC]    
1 63559U 25075M   26082.23941575  .00234617  00000+0  17636-2 0  9998
2 63559  42.9981  71.7654 0003163 254.3610 105.6908 15.71069037 55386
STARLINK-11592 [DTC]    
1 63560U 25075N   26082.25534226  .00362289  00000+0  26664-2 0  9991
2 63560  43.0006  71.8946 0002134 230.6736 129.3943 15.71188663 55385
STARLINK-32953          
1 63561U 25075P   26082.01728109  .00054592  00000+0  19778-2 0  9994
2 63561  43.0039 195.5426 0001798 275.5804  84.4843 15.27594402 53963
