[{"OBJECT_NAME":"STARLINK-33807","OBJECT_ID":"2025-071AB","EPOCH":"2026-03-23T05:47:56.987520","MEAN_MOTION":15.30190249,"ECCENTRICITY":0.00012406,"INCLINATION":53.1609,"RA_OF_ASC_NODE":79.1462,"ARG_OF_PERICENTER":95.9614,"MEAN_ANOMALY":264.1528,"EPHEMERIS_TYPE":0,"CLASSIFICATION_TYPE":"U","NORAD_CAT_ID":63518,"ELEMENT_SET_NO":999,"REV_AT_EPOCH":5481,"BSTAR":0.00057667001,"MEAN_MOTION_DOT":0.00016754,"MEAN_MOTION_DDOT":0},{"OBJECT_NAME":"STARLINK-33787","OBJECT_ID":"2025-071AC","EPOCH":"2026-03-23T05:55:32.689632","MEAN_MOTION":15.30193438,"ECCENTRICITY":0.00014225,"INCLINATION":53.1605,"RA_OF_ASC_NODE":79.1793,"ARG_OF_PERICENTER":85.6666,"MEAN_ANOMALY":274.4498,"EPHEMERIS_TYPE":0,"CLASSIFICATION_TYPE":"U","NORAD_CAT_ID":63519,"ELEMENT_SET_NO":999,"REV_AT_EPOCH":5444,"BSTAR":0.00053216494,"MEAN_MOTION_DOT":0.00015432,"MEAN_MOTION_DDOT":0},{"OBJECT_NAME":"STARLINK-11669 [DTC]","OBJECT_ID":"2025-075A","EPOCH":"2026-03-22T09:46:50.891808","MEAN_MOTION":15.70804405,"ECCENTRICITY":0.0001281,"INCLINATION":42.9994,"RA_OF_ASC_NODE":76.7105,"ARG_OF_PERICENTER":278.329,"MEAN_ANOMALY":81.7433,"EPHEMERIS_TYPE":0,"CLASSIFICATION_TYPE":"U","NORAD_CAT_ID":63548,"ELEMENT_SET_NO":999,"REV_AT_EPOCH":5525,"BSTAR":0.0018128117,"MEAN_MOTION_DOT":0.00238604,"MEAN_MOTION_DDOT":0},{"OBJECT_NAME":"STARLINK-11665 [DTC]","OBJECT_ID":"2025-075B","EPOCH":"2026-03-23T06:15:20.107296","MEAN_MOTION":15.70972104,"ECCENTRICITY":5.123e-5,"INCLINATION":42.9996,"RA_OF_ASC_NODE":71.9414,"ARG_OF_PERICENTER":254.0557,"MEAN_ANOMALY":106.0254,"EPHEMERIS_TYPE":0,"CLASSIFICATION_TYPE":"U","NORAD_CAT_ID":63549,"ELEMENT_SET_NO":999,"REV_AT_EPOCH":5538,"BSTAR":0.0025221608,"MEAN_MOTION_DOT":0.0033861,"MEAN_MOTION_DDOT":0},{"OBJECT_NAME":"STARLINK-11667 [DTC]","OBJECT_ID":"2025-075C","EPOCH":"2026-03-22T06:20:58.016832","MEAN_MOTION":15.70825881,"ECCENTRICITY":0.00010008,"INCLINATION":43.0007,"RA_OF_ASC_NODE":78.2447,"ARG_OF_PERICENTER":214.2799,"MEAN_ANOMALY":145.8005,"EPHEMERIS_TYPE":0,"CLASSIFICATION_TYPE":"U","NORAD_CAT_ID":63550,"ELEMENT_SET_NO":999,"REV_AT_EPOCH":5522,"BSTAR":0.0015061773,"MEAN_MOTION_DOT":0.00197354,"MEAN_MOTION_DDOT":0},{"OBJECT_NAME":"STARLINK-11695 [DTC]","OBJECT_ID":"2025-075D","EPOCH":"2026-03-22T06:45:01.809216","MEAN_MOTION":15.70803039,"ECCENTRICITY":0.00016769,"INCLINATION":42.9994,"RA_OF_ASC_NODE":77.4828,"ARG_OF_PERICENTER":239.0887,"MEAN_ANOMALY":120.9816,"EPHEMERIS_TYPE":0,"CLASSIFICATION_TYPE":"U","NORAD_CAT_ID":63551,"ELEMENT_SET_NO":999,"REV_AT_EPOCH":5523,"BSTAR":0.001357143,"MEAN_MOTION_DOT":0.00177178,"MEAN_MOTION_DDOT":0},{"OBJECT_NAME":"STARLINK-11685 [DTC]","OBJECT_ID":"2025-075E","EPOCH":"2026-03-23T05:52:24.037824","MEAN_MOTION":15.71002831,"ECCENTRICITY":0.00027497,"INCLINATION":43.0017,"RA_OF_ASC_NODE":71.8114,"ARG_OF_PERICENTER":254.2907,"MEAN_ANOMALY":105.7658,"EPHEMERIS_TYPE":0,"CLASSIFICATION_TYPE":"U","NORAD_CAT_ID":63552,"ELEMENT_SET_NO":999,"REV_AT_EPOCH":5538,"BSTAR":0.0017881995,"MEAN_MOTION_DOT":0.00237303,"MEAN_MOTION_DDOT":0},{"OBJECT_NAME":"STARLINK-11697 [DTC]","OBJECT_ID":"2025-075F","EPOCH":"2026-03-22T23:53:49.210944","MEAN_MOTION":15.70940147,"ECCENTRICITY":0.00017146,"INCLINATION":42.9998,"RA_OF_ASC_NODE":73.3858,"ARG_OF_PERICENTER":297.3951,"MEAN_ANOMALY":62.6742,"EPHEMERIS_TYPE":0,"CLASSIFICATION_TYPE":"U","NORAD_CAT_ID":63553,"ELEMENT_SET_NO":999,"REV_AT_EPOCH":5534,"BSTAR":0.0013587538,"MEAN_MOTION_DOT":0.00178442,"MEAN_MOTION_DDOT":0},{"OBJECT_NAME":"STARLINK-11680 [DTC]","OBJECT_ID":"2025-075G","EPOCH":"2026-03-22T16:54:16.326432","MEAN_MOTION":15.70854345,"ECCENTRICITY":5.346e-5,"INCLINATION":43,"RA_OF_ASC_NODE":75.516,"ARG_OF_PERICENTER":250.63,"MEAN_ANOMALY":109.451,"EPHEMERIS_TYPE":0,"CLASSIFICATION_TYPE":"U","NORAD_CAT_ID":63554,"ELEMENT_SET_NO":999,"REV_AT_EPOCH":5529,"BSTAR":0.0019715509,"MEAN_MOTION_DOT":0.00260792,"MEAN_MOTION_DDOT":0},{"OBJECT_NAME":"STARLINK-11687 [DTC]","OBJECT_ID":"2025-075H","EPOCH":"2026-03-23T06:00:00.999648","MEAN_MOTION":15.99746558,"ECCENTRICITY":0.00105957,"INCLINATION":42.9882,"RA_OF_ASC_NODE":67.3686,"ARG_OF_PERICENTER":152.9461,"MEAN_ANOMALY":187.6587,"EPHEMERIS_TYPE":0,"CLASSIFICATION_TYPE":"U","NORAD_CAT_ID":63555,"ELEMENT_SET_NO":999,"REV_AT_EPOCH":599,"BSTAR":0.0013047669,"MEAN_MOTION_DOT":0.00686355,"MEAN_MOTION_DDOT":0.00021818319},{"OBJECT_NAME":"STARLINK-11626 [DTC]","OBJECT_ID":"2025-075J","EPOCH":"2026-03-22T06:36:15.774048","MEAN_MOTION":15.70788816,"ECCENTRICITY":0.0001845,"INCLINATION":43.0024,"RA_OF_ASC_NODE":78.3268,"ARG_OF_PERICENTER":279.891,"MEAN_ANOMALY":80.1749,"EPHEMERIS_TYPE":0,"CLASSIFICATION_TYPE":"U","NORAD_CAT_ID":63556,"ELEMENT_SET_NO":999,"REV_AT_EPOCH":5522,"BSTAR":0.00070601355,"MEAN_MOTION_DOT":0.00090945,"MEAN_MOTION_DDOT":0},{"OBJECT_NAME":"STARLINK-11668 [DTC]","OBJECT_ID":"2025-075K","EPOCH":"2026-03-22T11:03:17.279424","MEAN_MOTION":15.70879325,"ECCENTRICITY":0.00024527,"INCLINATION":43.003,"RA_OF_ASC_NODE":77.1331,"ARG_OF_PERICENTER":270.9057,"MEAN_ANOMALY":89.1529,"EPHEMERIS_TYPE":0,"CLASSIFICATION_TYPE":"U","NORAD_CAT_ID":63557,"ELEMENT_SET_NO":999,"REV_AT_EPOCH":5525,"BSTAR":0.0016099542,"MEAN_MOTION_DOT":0.00211838,"MEAN_MOTION_DDOT":0},{"OBJECT_NAME":"STARLINK-11657 [DTC]","OBJECT_ID":"2025-075L","EPOCH":"2026-03-22T16:46:37.627104","MEAN_MOTION":15.70846597,"ECCENTRICITY":3.802e-5,"INCLINATION":43.0004,"RA_OF_ASC_NODE":75.472,"ARG_OF_PERICENTER":281.8587,"MEAN_ANOMALY":78.2238,"EPHEMERIS_TYPE":0,"CLASSIFICATION_TYPE":"U","NORAD_CAT_ID":63558,"ELEMENT_SET_NO":999,"REV_AT_EPOCH":5529,"BSTAR":0.0020724414,"MEAN_MOTION_DOT":0.00274535,"MEAN_MOTION_DDOT":0},{"OBJECT_NAME":"STARLINK-11606 [DTC]","OBJECT_ID":"2025-075M","EPOCH":"2026-03-23T05:44:45.520800","MEAN_MOTION":15.71069037,"ECCENTRICITY":0.00031632,"INCLINATION":42.9981,"RA_OF_ASC_NODE":71.7654,"ARG_OF_PERICENTER":254.361,"MEAN_ANOMALY":105.6908,"EPHEMERIS_TYPE":0,"CLASSIFICATION_TYPE":"U","NORAD_CAT_ID":63559,"ELEMENT_SET_NO":999,"REV_AT_EPOCH":5538,"BSTAR":0.0017635838,"MEAN_MOTION_DOT":0.00234617,"MEAN_MOTION_DDOT":0},{"OBJECT_NAME":"STARLINK-11592 [DTC]","OBJECT_ID":"2025-075N","EPOCH":"2026-03-23T06:07:41.571264","MEAN_MOTION":15.71188663,"ECCENTRICITY":0.00021342,"INCLINATION":43.0006,"RA_OF_ASC_NODE":71.8946,"ARG_OF_PERICENTER":230.6736,"MEAN_ANOMALY":129.3943,"EPHEMERIS_TYPE":0,"CLASSIFICATION_TYPE":"U","NORAD_CAT_ID":63560,"ELEMENT_SET_NO":999,"REV_AT_EPOCH":5538,"BSTAR":0.0026663715,"MEAN_MOTION_DOT":0.00362289,"MEAN_MOTION_DDOT":0},{"OBJECT_NAME":"STARLINK-32953","OBJECT_ID":"2025-075P","EPOCH":"2026-03-23T00:24:53.086176","MEAN_MOTION":15.27594402,"ECCENTRICITY":0.00017981,"INCLINATION":43.0039,"RA_OF_ASC_NODE":195.5426,"ARG_OF_PERICENTER":275.5804,"MEAN_ANOMALY":84.4843,"EPHEMERIS_TYPE":0,"CLASSIFICATION_TYPE":"U","NORAD_CAT_ID":63561,"ELEMENT_SET_NO":999,"REV_AT_EPOCH":5396,"BSTAR":0.0019778324,"MEAN_MOTION_DOT":0.00054592,"MEAN_MOTION_DDOT":0}]
